COMMENT,ORIGINATOR,NORAD_CAT_ID,OBJECT_NAME,OBJECT_TYPE,CLASSIFICATION_TYPE,INTLDES,EPOCH,EPOCH_MICROSECONDS,MEAN_MOTION,ECCENTRICITY,INCLINATION,RA_OF_ASC_NODE,ARG_OF_PERICENTER,MEAN_ANOMALY,EPHEMERIS_TYPE,ELEMENT_SET_NO,REV_AT_EPOCH,BSTAR,MEAN_MOTION_DOT,MEAN_MOTION_DDOT,FILE,TLE_LINE0,TLE_LINE1,TLE_LINE2,OBJECT_ID,OBJECT_NUMBER,SEMIMAJOR_AXIS,PERIOD,APOGEE,PERIGEE,DECAYED
GENERATED VIA SPACETRACK.ORG API,18 SPCS,38778,ASTRA 2F,PAYLOAD,U,12051A,2023-10-21 11:53:16,888704,1.00269028,0.0004231,0.0554,246.7593,327.4024,22.0751,0,999,4056,0,1.52e-06,0,4045834,0 ASTRA 2F,1 38778U 12051A   23294.49533436  .00000152  00000-0  00000+0 0  9996,2 38778   0.0554 246.7593 0004231 327.4024  22.0751  1.00269028 40567,2012-051A,38778,42165.505,1436.136,35805.21,35769.53,0
GENERATED VIA SPACETRACK.ORG API,18 SPCS,38778,ASTRA 2F,PAYLOAD,U,12051A,2023-10-21 13:36:22,835808,1.00268954,0.0004225,0.0552,246.5909,327.3832,48.1072,0,999,3140,0,1.52e-06,0,4046008,0 ASTRA 2F,1 38778U 12051A   23294.56693097  .00000152  00000-0  00000-0 0  9995,2 38778   0.0552 246.5909 0004225 327.3832  48.1072  1.00268954 31408,2012-051A,38778,42165.526,1436.137,35805.206,35769.576,0
GENERATED VIA SPACETRACK.ORG API,18 SPCS,38778,ASTRA 2F,PAYLOAD,U,12051A,2023-10-21 22:25:40,12896,1.00269084,0.0004238,0.0543,246.2591,328.1194,180.3833,0,999,3140,0,1.5e-06,0,4046563,0 ASTRA 2F,1 38778U 12051A   23294.93449089  .00000150  00000-0  00000-0 0  9994,2 38778   0.0543 246.2591 0004238 328.1194 180.3833  1.00269084 31405,2012-051A,38778,42165.489,1436.136,35805.224,35769.484,0
GENERATED VIA SPACETRACK.ORG API,18 SPCS,38778,ASTRA 2F,PAYLOAD,U,12051A,2023-10-22 13:40:44,10048,1.00269305,0.0004265,0.0527,245.2488,329.7957,49.1044,0,999,3141,0,1.48e-06,0,4047923,0 ASTRA 2F,1 38778U 12051A   23295.56995382  .00000148  00000-0  00000-0 0  9993,2 38778   0.0527 245.2488 0004265 329.7957  49.1044  1.00269305 31418,2012-051A,38778,42165.427,1436.132,35805.276,35769.309,0
GENERATED VIA SPACETRACK.ORG API,18 SPCS,38778,ASTRA 2F,PAYLOAD,U,12051A,2023-10-22 20:36:34,404192,1.00269443,0.0004276,0.052,245.0199,330.417,152.9543,0,999,4058,0,1.47e-06,0,4048387,0 ASTRA 2F,1 38778U 12051A   23295.85873153  .00000147  00000-0  00000+0 0  9994,2 38778   0.0520 245.0199 0004276 330.4170 152.9543  1.00269443 40584,2012-051A,38778,42165.389,1436.13,35805.283,35769.224,0
GENERATED VIA SPACETRACK.ORG API,18 SPCS,38778,ASTRA 2F,PAYLOAD,U,12051A,2023-10-22 22:24:12,431808,1.00269477,0.000428,0.0518,244.8927,330.6777,179.8025,0,999,3141,0,1.47e-06,0,4048538,0 ASTRA 2F,1 38778U 12051A   23295.93347722  .00000147  00000-0  00000-0 0  9992,2 38778   0.0518 244.8927 0004280 330.6777 179.8025  1.00269477 31419,2012-051A,38778,42165.379,1436.13,35805.291,35769.197,0
GENERATED VIA SPACETRACK.ORG API,18 SPCS,38778,ASTRA 2F,PAYLOAD,U,12051A,2023-10-23 19:40:42,597408,1.00269841,0.0004322,0.0497,243.6121,333.2605,138.4932,0,999,3142,0,1.45e-06,0,4050204,0 ASTRA 2F,1 38778U 12051A   23296.81993747  .00000145  00000-0  00000-0 0  9992,2 38778   0.0497 243.6121 0004322 333.2605 138.4932  1.00269841 31428,2012-051A,38778,42165.277,1436.125,35805.366,35768.918,0
GENERATED VIA SPACETRACK.ORG API,18 SPCS,38778,ASTRA 2F,PAYLOAD,U,12051A,2023-10-24 03:30:24,534720,1.00269991,0.0004335,0.0488,242.9494,334.5851,255.5757,0,999,4059,0,1.45e-06,0,4050825,0 ASTRA 2F,1 38778U 12051A   23297.14611730  .00000145  00000-0  00000+0 0  9997,2 38778   0.0488 242.9494 0004335 334.5851 255.5757  1.00269991 40594,2012-051A,38778,42165.235,1436.123,35805.379,35768.821,0
GENERATED VIA SPACETRACK.ORG API,18 SPCS,38778,ASTRA 2F,PAYLOAD,U,12051A,2023-10-24 12:06:18,468288,1.00270126,0.0004353,0.0478,242.5107,335.5192,24.4058,0,999,3143,0,1.44e-06,0,4051588,0 ASTRA 2F,1 38778U 12051A   23297.50438042  .00000144  00000-0  00000-0 0  9990,2 38778   0.0478 242.5107 0004353 335.5192  24.4058  1.00270126 31431,2012-051A,38778,42165.197,1436.121,35805.417,35768.708,0
GENERATED VIA SPACETRACK.ORG API,18 SPCS,38778,ASTRA 2F,PAYLOAD,U,12051A,2023-10-25 20:48:42,644736,1.00270827,0.0004426,0.0446,240.5767,339.6444,154.1532,0,999,4061,0,1.44e-06,0,4052187,0 ASTRA 2F,1 38778U 12051A   23298.86716024  .00000144  00000-0  00000+0 0  9998,2 38778   0.0446 240.5767 0004426 339.6444 154.1532  1.00270827 40618,2012-051A,38778,42165.001,1436.111,35805.528,35768.203,0
GENERATED VIA SPACETRACK.ORG API,18 SPCS,38778,ASTRA 2F,PAYLOAD,U,12051A,2023-10-26 01:51:42,755616,1.00270935,0.000443,0.0441,240.0542,340.5731,229.7046,0,999,3144,0,1.45e-06,0,4054082,0 ASTRA 2F,1 38778U 12051A   23299.07757819  .00000145  00000-0  00000-0 0  9991,2 38778   0.0441 240.0542 0004430 340.5731 229.7046  1.00270935 31444,2012-051A,38778,42164.97,1436.109,35805.514,35768.156,0
GENERATED VIA SPACETRACK.ORG API,18 SPCS,38778,ASTRA 2F,PAYLOAD,U,12051A,2023-10-26 21:48:37,656288,1.00271388,0.000448,0.0421,238.9737,342.9452,168.4594,0,999,3145,0,1.46e-06,0,4054421,0 ASTRA 2F,1 38778U 12051A   23299.90876917  .00000146  00000-0  00000-0 0  9995,2 38778   0.0421 238.9737 0004480 342.9452 168.4594  1.00271388 31456,2012-051A,38778,42164.843,1436.103,35805.598,35767.818,0
GENERATED VIA SPACETRACK.ORG API,18 SPCS,38778,ASTRA 2F,PAYLOAD,U,12051A,2023-10-26 21:48:37,656288,1.00271388,0.000448,0.0421,238.9737,342.9452,168.4594,0,999,4062,0,1.46e-06,0,4054806,0 ASTRA 2F,1 38778U 12051A   23299.90876917  .00000146  00000-0  00000+0 0  9994,2 38778   0.0421 238.9737 0004480 342.9452 168.4594  1.00271388 40625,2012-051A,38778,42164.843,1436.103,35805.598,35767.818,0
GENERATED VIA SPACETRACK.ORG API,18 SPCS,38778,ASTRA 2F,PAYLOAD,U,12051A,2023-10-27 07:09:43,79328,1.00271595,0.0004485,0.0413,238.3702,344.1566,308.5081,0,999,3146,0,1.46e-06,0,4055819,0 ASTRA 2F,1 38778U 12051A   23300.29841527  .00000146  00000-0  00000-0 0  9999,2 38778   0.0413 238.3702 0004485 344.1566 308.5081  1.00271595 31467,2012-051A,38778,42164.785,1436.1,35805.561,35767.739,0
GENERATED VIA SPACETRACK.ORG API,18 SPCS,38778,ASTRA 2F,PAYLOAD,U,12051A,2023-10-27 17:55:23,629728,1.00271873,0.0004525,0.0404,237.6,345.5605,109.7353,0,999,3146,0,1.47e-06,0,4056385,0 ASTRA 2F,1 38778U 12051A   23300.74680127  .00000147  00000-0  00000-0 0  9997,2 38778   0.0404 237.6000 0004525 345.5605 109.7353  1.00271873 31466,2012-051A,38778,42164.707,1436.096,35805.652,35767.493,0
GENERATED VIA SPACETRACK.ORG API,18 SPCS,38778,ASTRA 2F,PAYLOAD,U,12051A,2023-10-28 04:34:42,760416,1.00272117,0.0004536,0.0394,236.8273,347.0773,269.2593,0,999,4063,0,1.48e-06,0,4057505,0 ASTRA 2F,1 38778U 12051A   23301.19077269  .00000148  00000-0  00000+0 0  9994,2 38778   0.0394 236.8273 0004536 347.0773 269.2593  1.00272117 40631,2012-051A,38778,42164.639,1436.092,35805.63,35767.378,0
GENERATED VIA SPACETRACK.ORG API,18 SPCS,38778,ASTRA 2F,PAYLOAD,U,12051A,2023-10-28 04:34:42,760416,1.00272117,0.0004536,0.0394,236.8273,347.0773,269.2593,0,999,3147,0,1.48e-06,0,4057688,0 ASTRA 2F,1 38778U 12051A   23301.19077269  .00000148  00000-0  00000-0 0  9995,2 38778   0.0394 236.8273 0004536 347.0773 269.2593  1.00272117 31473,2012-051A,38778,42164.639,1436.092,35805.63,35767.378,0
GENERATED VIA SPACETRACK.ORG API,18 SPCS,38778,ASTRA 2F,PAYLOAD,U,12051A,2023-10-28 20:28:58,506816,1.00272536,0.0004585,0.0379,235.8094,349.1192,147.4555,0,999,3147,0,1.49e-06,0,4058258,0 ASTRA 2F,1 38778U 12051A   23301.85345494  .00000149  00000-0  00000-0 0  9997,2 38778   0.0379 235.8094 0004585 349.1192 147.4555  1.00272536 31478,2012-051A,38778,42164.521,1436.086,35805.719,35767.054,0
GENERATED VIA SPACETRACK.ORG API,18 SPCS,38778,ASTRA 2F,PAYLOAD,U,12051A,2023-10-29 21:20:34,764864,1.00273187,0.0004635,0.0357,233.8881,352.6207,159.8018,0,999,4065,0,1.5e-06,0,4059717,0 ASTRA 2F,1 38778U 12051A   23302.88929126  .00000150  00000-0  00000+0 0  9992,2 38778   0.0357 233.8881 0004635 352.6207 159.8018  1.00273187 40652,2012-051A,38778,42164.339,1436.077,35805.747,35766.661,0
GENERATED VIA SPACETRACK.ORG API,18 SPCS,38778,ASTRA 2F,PAYLOAD,U,12051A,2023-10-30 20:03:42,784704,1.00273793,0.0004673,0.034,232.0339,355.8318,140.1674,0,999,3149,0,1.5e-06,0,4061878,0 ASTRA 2F,1 38778U 12051A   23303.83591186  .00000150  00000-0  00000-0 0  9990,2 38778   0.0340 232.0339 0004673 355.8318 140.1674  1.00273793 31499,2012-051A,38778,42164.169,1436.068,35805.737,35766.331,0
GENERATED VIA SPACETRACK.ORG API,18 SPCS,38778,ASTRA 2F,PAYLOAD,U,12051A,2023-10-31 05:44:00,87360,1.00275239,0.0004995,0.0661,252.6107,333.4205,287.4794,0,999,4066,0,1.51e-06,0,4062810,0 ASTRA 2F,1 38778U 12051A   23304.23888990  .00000151  00000-0  00000+0 0  9997,2 38778   0.0661 252.6107 0004995 333.4205 287.4794  1.00275239 40664,2012-051A,38778,42163.764,1436.047,35806.69,35764.568,0
GENERATED VIA SPACETRACK.ORG API,18 SPCS,38778,ASTRA 2F,PAYLOAD,U,12051A,2023-10-31 12:36:38,377152,1.00272348,0.0004911,0.0653,252.4082,331.8151,32.728,0,999,3150,0,1.5e-06,0,4063043,0 ASTRA 2F,1 38778U 12051A   23304.52544418  .00000150  00000-0  00000-0 0  9993,2 38778   0.0653 252.4082 0004911 331.8151  32.7280  1.00272348 31507,2012-051A,38778,42164.574,1436.089,35807.146,35765.732,0
GENERATED VIA SPACETRACK.ORG API,18 SPCS,38778,ASTRA 2F,PAYLOAD,U,12051A,2023-10-31 20:48:11,373120,1.0027327,0.0004913,0.0644,252.2521,333.2151,154.7107,0,999,4067,0,1.51e-06,0,4063493,0 ASTRA 2F,1 38778U 12051A   23304.86679830  .00000151  00000-0  00000+0 0  9997,2 38778   0.0644 252.2521 0004913 333.2151 154.7107  1.00273270 40677,2012-051A,38778,42164.316,1436.076,35806.896,35765.465,0
GENERATED VIA SPACETRACK.ORG API,18 SPCS,38778,ASTRA 2F,PAYLOAD,U,12051A,2023-10-31 20:48:11,373120,1.0027327,0.0004913,0.0644,252.2521,333.2151,154.7107,0,999,3150,0,1.5e-06,0,4063660,0 ASTRA 2F,1 38778U 12051A   23304.86679830  .00000150  00000-0  00000-0 0  9997,2 38778   0.0644 252.2521 0004913 333.2151 154.7107  1.00273270 31509,2012-051A,38778,42164.316,1436.076,35806.896,35765.465,0
